SL-16 R/B               
1 25400U 98043G   26043.89371558  .00000069  00000+0  47885-4 0  9996
2 25400  98.8210 357.0879 0010977  86.6257 273.6178 14.26043814435456
SL-16 R/B               
1 25407U 98045B   26043.92222916  .00000264  00000+0  15764-3 0  9999
2 25407  71.0085 233.6583 0005556  53.8342 306.3294 14.16186612423593
ISS (ZARYA)             
1 25544U 98067A   26043.73019991  .00008107  00000+0  15726-3 0  9993
2 25544  51.6312 195.7383 0011098  92.2184 268.0075 15.48568005552463
CZ-4B R/B               
1 25732U 99025C   26043.97586135  .00000053  00000+0  46391-4 0  9997
2 25732  98.6677  88.8367 0037970  57.1130  16.2900 14.18260284384668
OKEAN-O                 
1 25860U 99039A   26043.70965244  .00000684  00000+0  96689-4 0  9992
2 25860  97.9500 103.8482 0001846  83.6087 276.5335 14.80293800430698
SL-16 R/B               
1 25861U 99039B   26043.84818274  .00000610  00000+0  84287-4 0  9998
2 25861  98.0021 102.9747 0014305 343.3808  16.6934 14.81695973433187
DELTA 2 R/B             
1 25876U 99041E   26043.94719201  .00002148  00000+0  38287-3 0  9994
2 25876  51.7656  40.0881 0502265 275.3437  79.0407 14.11740430359539
HELIOS 1B               
1 25977U 99064A   26043.69260997  .00001623  00000+0  18511-3 0  9991
2 25977  98.1723 305.1982 0002216 109.7216 250.4239 14.87593147681545
TERRA                   
1 25994U 99068A   26043.92125043  .00000476  00000+0  10613-3 0  9992
2 25994  97.9647  98.2954 0001018 241.2771 171.2752 14.60987371391468
SL-16 R/B               
1 26070U 00006B   26043.71922019 -.00000225  00000+0 -90106-4 0  9997
2 26070  71.0030 150.3409 0018212 225.5595 134.4039 14.15819765345022
TITAN 4B R/B            
1 26474U 00047B   26043.91408110  .00003231  00000+0  20713-3 0  9997
2 26474  67.9893 110.1684 0037033  65.8168 294.6845 15.09350026389175
ENVISAT                 
1 27386U 02009A   26043.84967573  .00000137  00000+0  58209-4 0  9999
2 27386  98.3685 358.0452 0001335  88.1817 285.5696 14.39027510255600
