CCSDS_OMM_VERS = 2.0
CREATION_DATE  = 
ORIGINATOR     = 

OBJECT_NAME    = SL-16 R/B
OBJECT_ID      = 1998-043G
CENTER_NAME    = EARTH
REF_FRAME      = TEME
TIME_SYSTEM    = UTC
MEAN_ELEMENT_THEORY = SGP/SGP4

EPOCH          = 2026-02-12T21:26:57.026112
MEAN_MOTION    = 14.26043814
ECCENTRICITY   = .00109771
INCLINATION    = 98.8210
RA_OF_ASC_NODE = 357.0879
ARG_OF_PERICENTER = 86.6257
MEAN_ANOMALY   = 273.6178

EPHEMERIS_TYPE = 0
CLASSIFICATION_TYPE = U
NORAD_CAT_ID   = 25400
ELEMENT_SET_NO = 999
REV_AT_EPOCH   = 43545
BSTAR          = .47885324E-4
MEAN_MOTION_DOT = .69E-6
MEAN_MOTION_DDOT = 0

CCSDS_OMM_VERS = 2.0
CREATION_DATE  = 
ORIGINATOR     = 

OBJECT_NAME    = SL-16 R/B
OBJECT_ID      = 1998-045B
CENTER_NAME    = EARTH
REF_FRAME      = TEME
TIME_SYSTEM    = UTC
MEAN_ELEMENT_THEORY = SGP/SGP4

EPOCH          = 2026-02-12T22:08:00.599424
MEAN_MOTION    = 14.16186612
ECCENTRICITY   = .00055569
INCLINATION    = 71.0085
RA_OF_ASC_NODE = 233.6583
ARG_OF_PERICENTER = 53.8342
MEAN_ANOMALY   = 306.3294

EPHEMERIS_TYPE = 0
CLASSIFICATION_TYPE = U
NORAD_CAT_ID   = 25407
ELEMENT_SET_NO = 999
REV_AT_EPOCH   = 42359
BSTAR          = .15764284E-3
MEAN_MOTION_DOT = .264E-5
MEAN_MOTION_DDOT = 0

CCSDS_OMM_VERS = 2.0
CREATION_DATE  = 
ORIGINATOR     = 

OBJECT_NAME    = ISS (ZARYA)
OBJECT_ID      = 1998-067A
CENTER_NAME    = EARTH
REF_FRAME      = TEME
TIME_SYSTEM    = UTC
MEAN_ELEMENT_THEORY = SGP/SGP4

EPOCH          = 2026-02-12T17:31:29.272224
MEAN_MOTION    = 15.48568005
ECCENTRICITY   = .00110989
INCLINATION    = 51.6312
RA_OF_ASC_NODE = 195.7383
ARG_OF_PERICENTER = 92.2184
MEAN_ANOMALY   = 268.0075

EPHEMERIS_TYPE = 0
CLASSIFICATION_TYPE = U
NORAD_CAT_ID   = 25544
ELEMENT_SET_NO = 999
REV_AT_EPOCH   = 55246
BSTAR          = .15726187E-3
MEAN_MOTION_DOT = .8107E-4
MEAN_MOTION_DDOT = 0

CCSDS_OMM_VERS = 2.0
CREATION_DATE  = 
ORIGINATOR     = 

OBJECT_NAME    = CZ-4B R/B
OBJECT_ID      = 1999-025C
CENTER_NAME    = EARTH
REF_FRAME      = TEME
TIME_SYSTEM    = UTC
MEAN_ELEMENT_THEORY = SGP/SGP4

EPOCH          = 2026-02-12T23:25:14.420640
MEAN_MOTION    = 14.18260284
ECCENTRICITY   = .00379705
INCLINATION    = 98.6677
RA_OF_ASC_NODE = 88.8367
ARG_OF_PERICENTER = 57.1130
MEAN_ANOMALY   = 16.2900

EPHEMERIS_TYPE = 0
CLASSIFICATION_TYPE = U
NORAD_CAT_ID   = 25732
ELEMENT_SET_NO = 999
REV_AT_EPOCH   = 38466
BSTAR          = .46390907E-4
MEAN_MOTION_DOT = .53E-6
MEAN_MOTION_DDOT = 0

CCSDS_OMM_VERS = 2.0
CREATION_DATE  = 
ORIGINATOR     = 

OBJECT_NAME    = OKEAN-O
OBJECT_ID      = 1999-039A
CENTER_NAME    = EARTH
REF_FRAME      = TEME
TIME_SYSTEM    = UTC
MEAN_ELEMENT_THEORY = SGP/SGP4

EPOCH          = 2026-02-12T17:01:53.970816
MEAN_MOTION    = 14.80293800
ECCENTRICITY   = .00018464
INCLINATION    = 97.9500
RA_OF_ASC_NODE = 103.8482
ARG_OF_PERICENTER = 83.6087
MEAN_ANOMALY   = 276.5335

EPHEMERIS_TYPE = 0
CLASSIFICATION_TYPE = U
NORAD_CAT_ID   = 25860
ELEMENT_SET_NO = 999
REV_AT_EPOCH   = 43069
BSTAR          = .96689308E-4
MEAN_MOTION_DOT = .684E-5
MEAN_MOTION_DDOT = 0

CCSDS_OMM_VERS = 2.0
CREATION_DATE  = 
ORIGINATOR     = 

OBJECT_NAME    = SL-16 R/B
OBJECT_ID      = 1999-039B
CENTER_NAME    = EARTH
REF_FRAME      = TEME
TIME_SYSTEM    = UTC
MEAN_ELEMENT_THEORY = SGP/SGP4

EPOCH          = 2026-02-12T20:21:22.988736
MEAN_MOTION    = 14.81695973
ECCENTRICITY   = .00143056
INCLINATION    = 98.0021
RA_OF_ASC_NODE = 102.9747
ARG_OF_PERICENTER = 343.3808
MEAN_ANOMALY   = 16.6934

EPHEMERIS_TYPE = 0
CLASSIFICATION_TYPE = U
NORAD_CAT_ID   = 25861
ELEMENT_SET_NO = 999
REV_AT_EPOCH   = 43318
BSTAR          = .84287125E-4
MEAN_MOTION_DOT = .61E-5
MEAN_MOTION_DDOT = 0

CCSDS_OMM_VERS = 2.0
CREATION_DATE  = 
ORIGINATOR     = 

OBJECT_NAME    = DELTA 2 R/B
OBJECT_ID      = 1999-041E
CENTER_NAME    = EARTH
REF_FRAME      = TEME
TIME_SYSTEM    = UTC
MEAN_ELEMENT_THEORY = SGP/SGP4

EPOCH          = 2026-02-12T22:43:57.389664
MEAN_MOTION    = 14.11740430
ECCENTRICITY   = .05022654
INCLINATION    = 51.7656
RA_OF_ASC_NODE = 40.0881
ARG_OF_PERICENTER = 275.3437
MEAN_ANOMALY   = 79.0407

EPHEMERIS_TYPE = 0
CLASSIFICATION_TYPE = U
NORAD_CAT_ID   = 25876
ELEMENT_SET_NO = 999
REV_AT_EPOCH   = 35953
BSTAR          = .3828739E-3
MEAN_MOTION_DOT = .2148E-4
MEAN_MOTION_DDOT = 0

CCSDS_OMM_VERS = 2.0
CREATION_DATE  = 
ORIGINATOR     = 

OBJECT_NAME    = HELIOS 1B
OBJECT_ID      = 1999-064A
CENTER_NAME    = EARTH
REF_FRAME      = TEME
TIME_SYSTEM    = UTC
MEAN_ELEMENT_THEORY = SGP/SGP4

EPOCH          = 2026-02-12T16:37:21.501408
MEAN_MOTION    = 14.87593147
ECCENTRICITY   = .00022168
INCLINATION    = 98.1723
RA_OF_ASC_NODE = 305.1982
ARG_OF_PERICENTER = 109.7216
MEAN_ANOMALY   = 250.4239

EPHEMERIS_TYPE = 0
CLASSIFICATION_TYPE = U
NORAD_CAT_ID   = 25977
ELEMENT_SET_NO = 999
REV_AT_EPOCH   = 68154
BSTAR          = .18510856E-3
MEAN_MOTION_DOT = .1623E-4
MEAN_MOTION_DDOT = 0

CCSDS_OMM_VERS = 2.0
CREATION_DATE  = 
ORIGINATOR     = 

OBJECT_NAME    = TERRA
OBJECT_ID      = 1999-068A
CENTER_NAME    = EARTH
REF_FRAME      = TEME
TIME_SYSTEM    = UTC
MEAN_ELEMENT_THEORY = SGP/SGP4

EPOCH          = 2026-02-12T22:06:36.037152
MEAN_MOTION    = 14.60987371
ECCENTRICITY   = .00010183
INCLINATION    = 97.9647
RA_OF_ASC_NODE = 98.2954
ARG_OF_PERICENTER = 241.2771
MEAN_ANOMALY   = 171.2752

EPHEMERIS_TYPE = 0
CLASSIFICATION_TYPE = U
NORAD_CAT_ID   = 25994
ELEMENT_SET_NO = 999
REV_AT_EPOCH   = 39146
BSTAR          = .10613118E-3
MEAN_MOTION_DOT = .476E-5
MEAN_MOTION_DDOT = 0

CCSDS_OMM_VERS = 2.0
CREATION_DATE  = 
ORIGINATOR     = 

OBJECT_NAME    = SL-16 R/B
OBJECT_ID      = 2000-006B
CENTER_NAME    = EARTH
REF_FRAME      = TEME
TIME_SYSTEM    = UTC
MEAN_ELEMENT_THEORY = SGP/SGP4

EPOCH          = 2026-02-12T17:15:40.624416
MEAN_MOTION    = 14.15819765
ECCENTRICITY   = .00182125
INCLINATION    = 71.0030
RA_OF_ASC_NODE = 150.3409
ARG_OF_PERICENTER = 225.5595
MEAN_ANOMALY   = 134.4039

EPHEMERIS_TYPE = 0
CLASSIFICATION_TYPE = U
NORAD_CAT_ID   = 26070
ELEMENT_SET_NO = 999
REV_AT_EPOCH   = 34502
BSTAR          = -.90106122E-4
MEAN_MOTION_DOT = -.225E-5
MEAN_MOTION_DDOT = 0

CCSDS_OMM_VERS = 2.0
CREATION_DATE  = 
ORIGINATOR     = 

OBJECT_NAME    = TITAN 4B R/B
OBJECT_ID      = 2000-047B
CENTER_NAME    = EARTH
REF_FRAME      = TEME
TIME_SYSTEM    = UTC
MEAN_ELEMENT_THEORY = SGP/SGP4

EPOCH          = 2026-02-12T21:56:16.607040
MEAN_MOTION    = 15.09350026
ECCENTRICITY   = .00370339
INCLINATION    = 67.9893
RA_OF_ASC_NODE = 110.1684
ARG_OF_PERICENTER = 65.8168
MEAN_ANOMALY   = 294.6845

EPHEMERIS_TYPE = 0
CLASSIFICATION_TYPE = U
NORAD_CAT_ID   = 26474
ELEMENT_SET_NO = 999
REV_AT_EPOCH   = 38917
BSTAR          = .20713093E-3
MEAN_MOTION_DOT = .3231E-4
MEAN_MOTION_DDOT = 0

CCSDS_OMM_VERS = 2.0
CREATION_DATE  = 
ORIGINATOR     = 

OBJECT_NAME    = ENVISAT
OBJECT_ID      = 2002-009A
CENTER_NAME    = EARTH
REF_FRAME      = TEME
TIME_SYSTEM    = UTC
MEAN_ELEMENT_THEORY = SGP/SGP4

EPOCH          = 2026-02-12T20:23:31.983072
MEAN_MOTION    = 14.39027510
ECCENTRICITY   = .00013352
INCLINATION    = 98.3685
RA_OF_ASC_NODE = 358.0452
ARG_OF_PERICENTER = 88.1817
MEAN_ANOMALY   = 285.5696

EPHEMERIS_TYPE = 0
CLASSIFICATION_TYPE = U
NORAD_CAT_ID   = 27386
ELEMENT_SET_NO = 999
REV_AT_EPOCH   = 25560
BSTAR          = .58209108E-4
MEAN_MOTION_DOT = .137E-5
MEAN_MOTION_DDOT = 0

